GLOBALSTAR M063         
1 26081U 00008A   25323.99348368 -.00000064  00000+0  27194-3 0  9996
2 26081  51.9969  61.2285 0004173 244.4727 286.7950 11.86178020176068
GLOBALSTAR M062         
1 26082U 00008B   25323.84621105 -.00000107  00000+0 -61770-4 0  9992
2 26082  51.9874 358.0316 0007330  85.7120  85.4828 12.43477168515982
GLOBALSTAR M060         
1 26083U 00008C   25324.27859517 -.00000116  00000+0 -24527-3 0  9999
2 26083  52.0043 338.8522 0003431  82.7846   0.7624 12.17667705171383
GLOBALSTAR M064         
1 26084U 00008D   25324.23195339 -.00000049  00000+0  49099-3 0  9996
2 26084  51.9994 157.5924 0001921  37.8135 322.2833 11.88539160185652
GLOBALSTAR M065         
1 31571U 07020A   25324.19499402 -.00000082  00000+0  12220-3 0  9990
2 31571  51.9876 111.4234 0009045 295.0269 236.7241 12.62014395853107
GLOBALSTAR M069         
1 31573U 07020C   25324.23610604 -.00000091  00000+0  15729-4 0  9994
2 31573  52.0007 123.5358 0002854  86.8914  85.8709 12.23463880853221
GLOBALSTAR M072         
1 31574U 07020D   25324.29459918 -.00000082  00000+0  33470-4 0  9993
2 31574  51.9945 296.3742 0000903 288.7966 210.6050 11.91653412850073
GLOBALSTAR M071         
1 31576U 07020F   25324.28782124  .00000008  00000+0  97449-3 0  9994
2 31576  52.0028 153.4098 0001991  78.9099  92.1795 12.18262051513968
